GLOBAL-31               
1 63027U 25033B   26186.31240146  .00018873  00000+0  50387-3 0  9997
2 63027  58.9969 242.8972 0010848  52.3920 307.8139 15.38175719 77116
GLOBAL-32               
1 64231U 25118B   26186.06251302  .00024136  00000+0  62137-3 0  9992
2 64231  58.9931  60.1772 0015587  54.6703 305.5828 15.39087371 60996
GLOBAL-33               
1 66554U 25267A   26186.36635404  .00020236  00000+0  54898-3 0  9991
2 66554  42.0200 310.5002 0009007  14.0239 346.0849 15.37153689 34843
GLOBAL-34               
1 68098U 26043A   26186.14103814  .00017796  00000+0  55345-3 0  9995
2 68098  42.0210 116.9423 0002092  18.1769 341.9144 15.32962510 18585
