{"fetched_at":"2026-07-06T08:47:02.100Z","source":"https://celestrak.org/NORAD/elements/gp.php?NAME=GLOBAL&FORMAT=JSON","constellation":"blacksky-gen3","records":[{"OBJECT_NAME":"GLOBAL-31","OBJECT_ID":"2025-033B","EPOCH":"2026-07-05T07:29:51.486144","CLASSIFICATION_TYPE":"U","MEAN_MOTION":15.38175719,"ECCENTRICITY":0.0010848,"INCLINATION":58.9969,"RA_OF_ASC_NODE":242.8972,"ARG_OF_PERICENTER":52.392,"MEAN_ANOMALY":307.8139,"EPHEMERIS_TYPE":0,"NORAD_CAT_ID":63027,"ELEMENT_SET_NO":999,"REV_AT_EPOCH":7711,"BSTAR":0.00050387,"MEAN_MOTION_DOT":0.00018873,"MEAN_MOTION_DDOT":0},{"OBJECT_NAME":"GLOBAL-32","OBJECT_ID":"2025-118B","EPOCH":"2026-07-05T01:30:01.124064","CLASSIFICATION_TYPE":"U","MEAN_MOTION":15.39087371,"ECCENTRICITY":0.0015587,"INCLINATION":58.9931,"RA_OF_ASC_NODE":60.1772,"ARG_OF_PERICENTER":54.6703,"MEAN_ANOMALY":305.5828,"EPHEMERIS_TYPE":0,"NORAD_CAT_ID":64231,"ELEMENT_SET_NO":999,"REV_AT_EPOCH":6099,"BSTAR":0.00062137,"MEAN_MOTION_DOT":0.00024136,"MEAN_MOTION_DDOT":0},{"OBJECT_NAME":"GLOBAL-33","OBJECT_ID":"2025-267A","EPOCH":"2026-07-05T08:47:32.989056","CLASSIFICATION_TYPE":"U","MEAN_MOTION":15.37153689,"ECCENTRICITY":0.0009008,"INCLINATION":42.02,"RA_OF_ASC_NODE":310.5002,"ARG_OF_PERICENTER":14.0239,"MEAN_ANOMALY":346.0849,"EPHEMERIS_TYPE":0,"NORAD_CAT_ID":66554,"ELEMENT_SET_NO":999,"REV_AT_EPOCH":3484,"BSTAR":0.00054898,"MEAN_MOTION_DOT":0.00020236,"MEAN_MOTION_DDOT":0},{"OBJECT_NAME":"GLOBAL-34","OBJECT_ID":"2026-043A","EPOCH":"2026-07-05T03:23:05.695296","CLASSIFICATION_TYPE":"U","MEAN_MOTION":15.3296251,"ECCENTRICITY":0.0002092,"INCLINATION":42.021,"RA_OF_ASC_NODE":116.9423,"ARG_OF_PERICENTER":18.1769,"MEAN_ANOMALY":341.9144,"EPHEMERIS_TYPE":0,"NORAD_CAT_ID":68098,"ELEMENT_SET_NO":999,"REV_AT_EPOCH":1858,"BSTAR":0.00055345,"MEAN_MOTION_DOT":0.00017796,"MEAN_MOTION_DDOT":0}]}
